ONEWEB-0220             
1 48232U 21031Y   23261.70063408  .00000259  00000+0  66495-3 0  9996
2 48232  87.8997 129.2774 0001519  65.0936 295.0351 13.14500491116704
ONEWEB-0165             
1 48233U 21031Z   23261.57798665 -.00000429  00000+0 -11930-2 0  9996
2 48233  87.8993 129.3140 0001743  70.5573 289.5745 13.14502922116645
ONEWEB-0199             
1 48234U 21031AA  23261.56109536  .00000173  00000+0  43227-3 0  9998
2 48234  87.8992 129.2893 0001719  71.3368 288.7949 13.14501269116542
ONEWEB-0203             
1 48235U 21031AB  23261.70275988  .00000454  00000+0  11902-2 0  9996
2 48235  87.8992 129.2602 0002087  80.8455 279.2911 13.14503878116577
ONEWEB-0197             
1 48236U 21031AC  23261.53768381  .00000178  00000+0  44529-3 0  9997
2 48236  87.8990 129.3017 0001525  83.2020 276.9283 13.14502170116466
ONEWEB-0194             
1 48237U 21031AD  23261.58222028 -.00000423  00000+0 -11749-2 0  9998
2 48237  87.8991 129.2821 0002078  85.2327 274.9040 13.14502980116644
ONEWEB-0193             
1 48238U 21031AE  23261.14244127 -.00000012  00000+0 -66564-4 0  9996
2 48238  87.8990 129.3790 0001920  71.9259 288.2080 13.14504943116532
ONEWEB-0191             
1 48239U 21031AF  23261.53360609  .00000129  00000+0  31365-3 0  9991
2 48239  87.8999 129.2812 0001894  77.7964 282.3378 13.14505138116445
